start=new Date('2023-01-10T00:00:00.000Z').valueOf();
sats=[{"SEMIMAJOR_AXIS":"6925.317","EPHEMERIS_TYPE":"0","EPOCH":"2023-01-09T12:10:17.744448","SITE":"AFETR","DECAY_DATE":null,"REV_AT_EPOCH":"11758","LAUNCH_DATE":"2020-11-25","NORAD_CAT_ID":"47179","PERIOD":"95.591","CLASSIFICATION_TYPE":"U","TLE_LINE1":"1 47179U 20088BK  23009.50714982  .00007860  00000-0  54583-3 0  9995","INCLINATION":"53.0526","OBJECT_TYPE":"PAYLOAD","MEAN_ELEMENT_THEORY":"SGP4","ARG_OF_PERICENTER":"39.0002","ELEMENT_SET_NO":"999","MEAN_MOTION":"15.06410321","MEAN_MOTION_DOT":"0.00007860","PERIAPSIS":"545.770","TLE_LINE2":"2 47179  53.0526  97.4412 0002039  39.0002 321.1134 15.06410321117586","RCS_SIZE":"LARGE","OBJECT_NAME":"STARLINK-1913","COUNTRY_CODE":"US","RA_OF_ASC_NODE":"97.4412","BSTAR":"0.00054583000000","GP_ID":"222542689","OBJECT_ID":"2020-088BK","REF_FRAME":"TEME","APOAPSIS":"548.594","MEAN_ANOMALY":"321.1134","FILE":"3737263","MEAN_MOTION_DDOT":"0.0000000000000","CENTER_NAME":"EARTH","ECCENTRICITY":"0.00020390","TIME_SYSTEM":"UTC"},{"NORAD_CAT_ID":"47181","SEMIMAJOR_AXIS":"6925.379","EPHEMERIS_TYPE":"0","EPOCH":"2023-01-09T03:34:06.746016","SITE":"AFETR","REV_AT_EPOCH":"11794","DECAY_DATE":null,"LAUNCH_DATE":"2020-11-25","TLE_LINE1":"1 47181U 20088BM  23009.14868919  .00001042  00000-0  88870-4 0  9991","PERIOD":"95.593","CLASSIFICATION_TYPE":"U","OBJECT_TYPE":"PAYLOAD","INCLINATION":"53.0536","ELEMENT_SET_NO":"999","MEAN_MOTION_DOT":"0.00001042","MEAN_MOTION":"15.06390160","MEAN_ELEMENT_THEORY":"SGP4","ARG_OF_PERICENTER":"46.8427","RCS_SIZE":"LARGE","TLE_LINE2":"2 47181  53.0536  69.0543 0002074  46.8427 313.2735 15.06390160117943","PERIAPSIS":"545.807","OBJECT_NAME":"STARLINK-1927","COUNTRY_CODE":"US","RA_OF_ASC_NODE":"69.0543","OBJECT_ID":"2020-088BM","BSTAR":"0.00008887000000","GP_ID":"222543440","REF_FRAME":"TEME","APOAPSIS":"548.680","MEAN_ANOMALY":"313.2735","TIME_SYSTEM":"UTC","ECCENTRICITY":"0.00020740","FILE":"3737263","MEAN_MOTION_DDOT":"0.0000000000000","CENTER_NAME":"EARTH"},{"ELEMENT_SET_NO":"999","MEAN_MOTION_DOT":"0.00000053","MEAN_MOTION":"15.06397395","ARG_OF_PERICENTER":"95.8728","MEAN_ELEMENT_THEORY":"SGP4","OBJECT_TYPE":"PAYLOAD","INCLINATION":"53.0523","TLE_LINE1":"1 47350U 21005B   23009.25375613  .00000053  00000-0  22475-4 0  9995","PERIOD":"95.592","CLASSIFICATION_TYPE":"U","NORAD_CAT_ID":"47350","SITE":"AFETR","EPOCH":"2023-01-09T06:05:24.529632","SEMIMAJOR_AXIS":"6925.357","EPHEMERIS_TYPE":"0","LAUNCH_DATE":"2021-01-20","DECAY_DATE":null,"REV_AT_EPOCH":"10889","ECCENTRICITY":"0.00015440","TIME_SYSTEM":"UTC","FILE":"3737263","CENTER_NAME":"EARTH","MEAN_MOTION_DDOT":"0.0000000000000","MEAN_ANOMALY":"264.2437","APOAPSIS":"548.291","REF_FRAME":"TEME","OBJECT_ID":"2021-005B","BSTAR":"0.00002247500000","GP_ID":"222543457","TLE_LINE2":"2 47350  53.0523 208.5812 0001544  95.8728 264.2437 15.06397395108890","RCS_SIZE":"LARGE","PERIAPSIS":"546.152","COUNTRY_CODE":"US","RA_OF_ASC_NODE":"208.5812","OBJECT_NAME":"STARLINK-2011"},{"INCLINATION":"53.0554","OBJECT_TYPE":"PAYLOAD","MEAN_ELEMENT_THEORY":"SGP4","ARG_OF_PERICENTER":"81.5260","ELEMENT_SET_NO":"999","MEAN_MOTION_DOT":"0.00000673","MEAN_MOTION":"15.06396728","EPHEMERIS_TYPE":"0","SEMIMAJOR_AXIS":"6925.359","EPOCH":"2023-01-09T13:08:38.705280","SITE":"AFETR","LAUNCH_DATE":"2021-01-20","DECAY_DATE":null,"REV_AT_EPOCH":"11015","NORAD_CAT_ID":"47351","PERIOD":"95.592","CLASSIFICATION_TYPE":"U","TLE_LINE1":"1 47351U 21005C   23009.54767020  .00000673  00000-0  64051-4 0  9999","APOAPSIS":"548.109","REF_FRAME":"TEME","MEAN_ANOMALY":"278.5873","FILE":"3737329","MEAN_MOTION_DDOT":"0.0000000000000","CENTER_NAME":"EARTH","ECCENTRICITY":"0.00012780","TIME_SYSTEM":"UTC","TLE_LINE2":"2 47351  53.0554 167.2521 0001278  81.5260 278.5873 15.06396728110153","PERIAPSIS":"546.339","RCS_SIZE":"LARGE","COUNTRY_CODE":"US","OBJECT_NAME":"STARLINK-2017","RA_OF_ASC_NODE":"167.2521","BSTAR":"0.00006405100000","GP_ID":"222575511","OBJECT_ID":"2021-005C"},{"PERIOD":"95.592","CLASSIFICATION_TYPE":"U","TLE_LINE1":"1 47352U 21005D   23009.63339325  .00002217  00000-0  16766-3 0  9998","SITE":"AFETR","EPHEMERIS_TYPE":"0","SEMIMAJOR_AXIS":"6925.357","EPOCH":"2023-01-09T15:12:05.176800","DECAY_DATE":null,"LAUNCH_DATE":"2021-01-20","REV_AT_EPOCH":"10960","NORAD_CAT_ID":"47352","ARG_OF_PERICENTER":"87.0848","MEAN_ELEMENT_THEORY":"SGP4","ELEMENT_SET_NO":"999","MEAN_MOTION_DOT":"0.00002217","MEAN_MOTION":"15.06397290","INCLINATION":"53.0540","OBJECT_TYPE":"PAYLOAD","BSTAR":"0.00016766000000","GP_ID":"222579446","OBJECT_ID":"2021-005D","PERIAPSIS":"546.342","TLE_LINE2":"2 47352  53.0540 206.8807 0001271  87.0848 273.0286 15.06397290109603","RCS_SIZE":"LARGE","OBJECT_NAME":"STARLINK-2034","COUNTRY_CODE":"US","RA_OF_ASC_NODE":"206.8807","FILE":"3737529","CENTER_NAME":"EARTH","MEAN_MOTION_DDOT":"0.0000000000000","ECCENTRICITY":"0.00012710","TIME_SYSTEM":"UTC","MEAN_ANOMALY":"273.0286","REF_FRAME":"TEME","APOAPSIS":"548.102"},{"OBJECT_NAME":"STARLINK-2045","COUNTRY_CODE":"US","RA_OF_ASC_NODE":"154.1665","RCS_SIZE":"LARGE","TLE_LINE2":"2 47353  53.0545 154.1665 0001340  72.7802 287.3333 15.06398076109642","PERIAPSIS":"546.291","GP_ID":"222543207","BSTAR":"-0.00001735600000","OBJECT_ID":"2021-005E","REF_FRAME":"TEME","APOAPSIS":"548.147","MEAN_ANOMALY":"287.3333","MEAN_MOTION_DDOT":"0.0000000000000","CENTER_NAME":"EARTH","FILE":"3737263","ECCENTRICITY":"0.00013400","TIME_SYSTEM":"UTC","REV_AT_EPOCH":"10964","DECAY_DATE":null,"LAUNCH_DATE":"2021-01-20","SEMIMAJOR_AXIS":"6925.354","EPHEMERIS_TYPE":"0","EPOCH":"2023-01-09T02:58:56.635104","SITE":"AFETR","NORAD_CAT_ID":"47353","CLASSIFICATION_TYPE":"U","PERIOD":"95.592","TLE_LINE1":"1 47353U 21005E   23009.12426661 -.00000540  00000-0 -17356-4 0  9999","INCLINATION":"53.0545","OBJECT_TYPE":"PAYLOAD","MEAN_ELEMENT_THEORY":"SGP4","ARG_OF_PERICENTER":"72.7802","MEAN_MOTION_DOT":"-0.00000540","MEAN_MOTION":"15.06398076","ELEMENT_SET_NO":"999"},{"BSTAR":"0.00001057500000","GP_ID":"222542957","OBJECT_ID":"2021-005F","TLE_LINE2":"2 47354  53.0535 172.5983 0001360  88.5084 271.6061 15.06403297109419","RCS_SIZE":"LARGE","PERIAPSIS":"546.262","COUNTRY_CODE":"US","RA_OF_ASC_NODE":"172.5983","OBJECT_NAME":"STARLINK-2046","FILE":"3737263","CENTER_NAME":"EARTH","MEAN_MOTION_DDOT":"0.0000000000000","TIME_SYSTEM":"UTC","ECCENTRICITY":"0.00013600","MEAN_ANOMALY":"271.6061","APOAPSIS":"548.145","REF_FRAME":"TEME","PERIOD":"95.592","CLASSIFICATION_TYPE":"U","TLE_LINE1":"1 47354U 21005F   23009.46890000 -.00000124  00000-0  10575-4 0  9992","SITE":"AFETR","SEMIMAJOR_AXIS":"6925.338","EPHEMERIS_TYPE":"0","EPOCH":"2023-01-09T11:15:12.960000","REV_AT_EPOCH":"10941","DECAY_DATE":null,"LAUNCH_DATE":"2021-01-20","NORAD_CAT_ID":"47354","ARG_OF_PERICENTER":"88.5084","MEAN_ELEMENT_THEORY":"SGP4","ELEMENT_SET_NO":"999","MEAN_MOTION":"15.06403297","MEAN_MOTION_DOT":"-0.00000124","INCLINATION":"53.0535","OBJECT_TYPE":"PAYLOAD"},{"REV_AT_EPOCH":"10962","DECAY_DATE":null,"LAUNCH_DATE":"2021-01-20","SITE":"AFETR","SEMIMAJOR_AXIS":"6925.336","EPOCH":"2023-01-09T11:46:24.283776","EPHEMERIS_TYPE":"0","NORAD_CAT_ID":"47355","CLASSIFICATION_TYPE":"U","PERIOD":"95.592","TLE_LINE1":"1 47355U 21005G   23009.49055884  .00001681  00000-0  13168-3 0  9997","INCLINATION":"53.0528","OBJECT_TYPE":"PAYLOAD","ARG_OF_PERICENTER":"64.8442","MEAN_ELEMENT_THEORY":"SGP4","MEAN_MOTION":"15.06403957","MEAN_MOTION_DOT":"0.00001681","ELEMENT_SET_NO":"999","OBJECT_NAME":"STARLINK-2047","COUNTRY_CODE":"US","RA_OF_ASC_NODE":"157.4988","TLE_LINE2":"2 47355  53.0528 157.4988 0001524  64.8442 295.2705 15.06403957109629","RCS_SIZE":"LARGE","PERIAPSIS":"546.146","GP_ID":"222542206","BSTAR":"0.00013168000000","OBJECT_ID":"2021-005G","MEAN_ANOMALY":"295.2705","REF_FRAME":"TEME","APOAPSIS":"548.257","CENTER_NAME":"EARTH","MEAN_MOTION_DDOT":"0.0000000000000","FILE":"3737263","ECCENTRICITY":"0.00015240","TIME_SYSTEM":"UTC"},{"ECCENTRICITY":"0.00012820","TIME_SYSTEM":"UTC","CENTER_NAME":"EARTH","MEAN_MOTION_DDOT":"0.0000000000000","FILE":"3737529","MEAN_ANOMALY":"271.2013","APOAPSIS":"548.113","REF_FRAME":"TEME","OBJECT_ID":"2021-005H","GP_ID":"222579448","BSTAR":"0.00003033400000","RA_OF_ASC_NODE":"176.4088","COUNTRY_CODE":"US","OBJECT_NAME":"STARLINK-2049","TLE_LINE2":"2 47356  53.0539 176.4088 0001282  88.9123 271.2013 15.06396132110330","RCS_SIZE":"LARGE","PERIAPSIS":"546.338","MEAN_MOTION_DOT":"0.00000170","MEAN_MOTION":"15.06396132","ELEMENT_SET_NO":"999","ARG_OF_PERICENTER":"88.9123","MEAN_ELEMENT_THEORY":"SGP4","OBJECT_TYPE":"PAYLOAD","INCLINATION":"53.0539","TLE_LINE1":"1 47356U 21005H   23009.73568443  .00000170  00000-0  30334-4 0  9992","CLASSIFICATION_TYPE":"U","PERIOD":"95.592","NORAD_CAT_ID":"47356","REV_AT_EPOCH":"11033","DECAY_DATE":null,"LAUNCH_DATE":"2021-01-20","SITE":"AFETR","EPHEMERIS_TYPE":"0","SEMIMAJOR_AXIS":"6925.360","EPOCH":"2023-01-09T17:39:23.134752"},{"ECCENTRICITY":"0.00013370","TIME_SYSTEM":"UTC","FILE":"3737263","CENTER_NAME":"EARTH","MEAN_MOTION_DDOT":"0.0000000000000","MEAN_ANOMALY":"268.5615","REF_FRAME":"TEME","APOAPSIS":"548.138","OBJECT_ID":"2021-005J","BSTAR":"0.00009986700000","GP_ID":"222542707","PERIAPSIS":"546.286","TLE_LINE2":"2 47357  53.0534 207.5741 0001337  91.5527 268.5615 15.06400530108924","RCS_SIZE":"LARGE","RA_OF_ASC_NODE":"207.5741","COUNTRY_CODE":"US","OBJECT_NAME":"STARLINK-2050","ELEMENT_SET_NO":"999","MEAN_MOTION_DOT":"0.00001206","MEAN_MOTION":"15.06400530","ARG_OF_PERICENTER":"91.5527","MEAN_ELEMENT_THEORY":"SGP4","OBJECT_TYPE":"PAYLOAD","INCLINATION":"53.0534","TLE_LINE1":"1 47357U 21005J   23009.47859250  .00001206  00000-0  99867-4 0  9990","PERIOD":"95.592","CLASSIFICATION_TYPE":"U","NORAD_CAT_ID":"47357","SITE":"AFETR","SEMIMAJOR_AXIS":"6925.347","EPHEMERIS_TYPE":"0","EPOCH":"2023-01-09T11:29:10.392000","REV_AT_EPOCH":"10892","DECAY_DATE":null,"LAUNCH_DATE":"2021-01-20"}];
